CHUANGXIN 1-02 (CX-1-02)
1 33434U 08056B   26155.98410016  .00000034  00000+0  30203-4 0  9992
2 33434  98.6134 182.3724 0014228 171.2337 188.9096 14.30150292916877
STARS (KUKAI)           
1 33498U 09002G   26154.63845063  .00003927  00000+0  35869-3 0  9995
2 33498  98.1544 101.3959 0007664 206.9688 153.1134 14.95649410936458
KKS-1 (KISEKI)          
1 33499U 09002H   26155.84269687  .00001684  00000+0  21356-3 0  9996
2 33499  98.1193  78.0894 0007348 341.1315  18.9625 14.83091539934366
UK-DMC 2                
1 35683U 09041C   26155.95568381  .00001123  00000+0  17024-3 0  9996
2 35683  97.8826 291.2218 0001341  73.1106 287.0251 14.76012091904761
OCEANSAT-2              
1 35931U 09051A   26155.97547997  .00000196  00000+0  15960-3 0  9991
2 35931  98.2321 144.0453 0014537 273.6656  86.2848 13.99662716877620
SWISSCUBE               
1 35932U 09051B   26154.27980436  .00001220  00000+0  25059-3 0  9992
2 35932  98.4045  61.9256 0005398 254.9932 105.0671 14.62453382887126
BEESAT-1                
1 35933U 09051C   26154.62429402  .00000980  00000+0  20663-3 0  9991
2 35933  98.3973  61.9398 0003909 272.0464  88.0289 14.61697093887202
ITUPSAT1                
1 35935U 09051E   26155.69953963  .00000958  00000+0  20796-3 0  9997
2 35935  98.4056  62.2366 0006134 280.9538  79.0971 14.60421767886916
DMSP 5D-3 F18 (USA 210) 
1 35951U 09057A   26155.90718444  .00000297  00000+0  17690-3 0  9993
2 35951  98.9033 136.7033 0009938 288.6918  71.3176 14.14889826857850
PROBA-2                 
1 36037U 09059B   26155.31065041  .00000233  00000+0  64911-4 0  9993
2 36037  98.2449 338.8422 0012442 325.3575  34.6810 14.54856807879655
YAOGAN-7                
1 36110U 09069A   26155.69973087  .00000630  00000+0  94170-4 0  9996
2 36110  98.0085  41.6431 0026006  80.1150 280.2994 14.77996983887786
XIWANG-1 (HOPE-1)       
1 36122U 09072B   26155.85602716 -.00000136  00000+0 -23975-3 0  9996
2 36122 100.4026 109.8856 0006791 262.8970  97.1371 13.16437636791389
COSMOS 2463             
1 36519U 10017A   26155.65440808  .00000069  00000+0  59265-4 0  9992
2 36519  82.9609 258.9133 0036681 162.8538 311.8786 13.71664853806213
CARTOSAT-2B             
1 36795U 10035A   26155.95604072  .00000482  00000+0  72868-4 0  9999
2 36795  97.9953 206.5827 0010272 226.1500 133.8863 14.78644085858046
TISAT 1                 
1 36799U 10035E   26154.33049739  .00022924  00000+0  76310-3 0  9997
2 36799  98.0708  99.6565 0000568  17.2069 342.9189 15.31153617865583
YAOGAN-10               
1 36834U 10038A   26155.89955156  .00001663  00000+0  19976-3 0  9993
2 36834  97.8975 179.4013 0001600  88.9335  31.7640 14.85308612855387
SHIJIAN-6 04B (SJ-6 04B)
1 37180U 10051B   26155.94318689  .00001086  00000+0  93985-4 0  9995
2 37180  97.8681 161.2291 0009687 352.2942   7.8130 14.99287036853845
FENGYUN 3B              
1 37214U 10059A   26156.00922637 -.00000008  00000+0  19082-4 0  9993
2 37214  98.9619 201.9715 0021284 219.3380 255.2561 14.14837757805702
COSMO-SKYMED 4          
1 37216U 10060A   26155.95429052  .00000810  00000+0  10826-3 0  9999
2 37216  97.8883 339.7314 0001447  83.2730 276.8647 14.82161119842753
O/OREOS (USA 219)       
1 37224U 10062C   26155.53866293  .00002928  00000+0  28218-3 0  9992
2 37224  71.9702 108.9883 0012354  90.8260 269.4326 14.93687553114754
RESOURCESAT-2           
1 37387U 11015A   26155.91280743  .00000110  00000+0  70490-4 0  9994
2 37387  98.7646 223.4389 0010183 295.0390  64.9729 14.21603759784433
YOUTHSAT                
1 37388U 11015B   26154.55112882  .00000221  00000+0  11044-3 0  9994
2 37388  98.3675 129.2206 0015061  26.6675  88.8490 14.25624361785692
APRIZESAT 6             
1 37793U 11044F   26155.74862656  .00000878  00000+0  13078-3 0  9996
2 37793  98.2372  65.9940 0044214 124.6952 296.7831 14.76897456795317
JUGNU                   
1 37839U 11058B   26152.07859182  .00000456  00000+0  98509-4 0  9990
2 37839  19.9618  46.2876 0018499 258.1927 242.1590 14.13771859756742
SRMSAT                  
1 37841U 11058D   26155.28992141  .00000393  00000+0  69540-4 0  9995
2 37841  19.9702 137.5332 0011913  62.8275  26.7062 14.11572942755996
